STARLINK-31517          
1 59213U 24046N   26068.51244537  .00000541  00000+0  30409-4 0  9998
2 59213  53.1596 156.1017 0001114  79.6531 280.4595 15.30186576113011
HYPERFIELD-1A           
1 60562U 24149CY  26068.76488211  .00008569  00000+0  30052-3 0  9998
2 60562  97.3842 149.5066 0003865 313.7844  46.3076 15.29681349 86836
